ELECTRON R/B
1 68800U 26088J   26113.86170093  .00637055  22657-5  47113-3 0  9995
2 68800  97.4982 264.6236 0273619 210.4209 148.0935 15.69511433   118
ELECTRON KICK STAGE R/B
1 68801U 26088K   26114.88540975  .00255201  23514-5  32364-3 0  9993
2 68801  97.4749 265.6383 0259042 258.0339  99.1777 15.66715126   279
STARLINK-37471
1 68802U 26089A   26120.16667823 -.02399349  15110-2 -81257-2 0  9995
2 68802  97.2859 325.5256 0001353 104.4042 211.4330 15.90089281  2347
STARLINK-37460
1 68803U 26089B   26120.16667823 -.02410708  15284-2 -80729-2 0  9994
2 68803  97.2859 325.5269 0001482  96.4506 221.8414 15.90313178  2286
STARLINK-37473
1 68804U 26089C   26120.16667823 -.02399468  15176-2 -79620-2 0  9992
2 68804  97.2857 325.5282 0001498  97.3793 223.6999 15.90493956  2286
STARLINK-36832
1 68805U 26089D   26120.16667823 -.02382016  14995-2 -78271-2 0  9993
2 68805  97.2854 325.5292 0001406  98.9292 224.7563 15.90686561  2280
STARLINK-37370
1 68806U 26089E   26120.16667823 -.02380510  15005-2 -77522-2 0  9992
2 68806  97.2855 325.5304 0001477 102.7584 223.7179 15.90863484  2285
STARLINK-37366
1 68807U 26089F   26120.16667823 -.02365112  14850-2 -76260-2 0  9999
2 68807  97.2853 325.5312 0001456 104.1337 224.7799 15.91057930  2283
STARLINK-37446
1 68808U 26089G   26120.16667823 -.02355400  14762-2 -75233-2 0  9990
2 68808  97.2854 325.5324 0001421 103.3607 228.1112 15.91243015  2289
STARLINK-37405
1 68809U 26089H   26120.16667823 -.02348216  14704-2 -74317-2 0  9996
2 68809  97.2852 325.5338 0001449  99.3621 234.7117 15.91422847  2340
STARLINK-37447
1 68810U 26089J   26120.16667823 -.02346253  14708-2 -73590-2 0  9993
2 68810  97.2849 325.5346 0001450  97.1659 239.5848 15.91598841  2281
STARLINK-37442
1 68811U 26089K   26120.16667823 -.02341849  14684-2 -72768-2 0  9999
2 68811  97.2850 325.5358 0001452  94.3356 244.9052 15.91781246  2349
STARLINK-37431
1 68812U 26089L   26120.16667823 -.02340455  14695-2 -72065-2 0  9994
2 68812  97.2846 325.5366 0001425  97.8302 243.9846 15.91958992  2280
STARLINK-37426
1 68813U 26089M   26120.16667823 -.02328086  14574-2 -71038-2 0  9996
2 68813  97.2847 325.5380 0001463  95.6045 248.6177 15.92134306  2285
STARLINK-37459
1 68814U 26089N   26120.16667823 -.02311435  14401-2 -69906-2 0  9997
2 68814  97.2842 325.5388 0001371  92.6128 254.1133 15.92305653  2285
STARLINK-37425
1 68815U 26089P   26120.16667823 -.02295864  14266-2 -68247-2 0  9991
2 68815  97.2839 325.5410 0001474  88.8046 262.9282 15.92638564  2280
STARLINK-37315
1 68816U 26089Q   26120.16667823 -.02299349  14283-2 -68924-2 0  9995
2 68816  97.2841 325.5398 0001381  88.7862 260.3345 15.92477445  2282
STARLINK-37444
1 68817U 26089R   26120.16667823 -.02303333  14382-2 -67881-2 0  9996
2 68817  97.2835 325.5415 0001451  96.3999 257.9592 15.92805738  2343
STARLINK-37450
1 68818U 26089S   26120.16667823 -.02276648  14088-2 -66524-2 0  9991
2 68818  97.2836 325.5427 0001539  86.2144 270.4322 15.92968122  2286
STARLINK-37409
1 68819U 26089T   26120.16667823 -.02277272  14121-2 -65985-2 0  9994
2 68819  97.2836 325.5439 0001415  96.7671 262.4618 15.93130328  2283
STARLINK-37470
1 68820U 26089U   26120.16667823 -.02249854  13871-2 -63532-2 0  9998
2 68820  97.2831 325.5466 0001373  93.1489 272.9788 15.93622261  2287
STARLINK-37421
1 68821U 26089V   26120.16667823 -.02267468  14030-2 -65128-2 0  9991
2 68821  97.2836 325.5454 0001447  87.0084 274.5285 15.93297795  2285
STARLINK-37462
1 68822U 26089W   26120.16667823 -.02258405  13948-2 -64319-2 0  9991
2 68822  97.2834 325.5459 0001397  93.1739 270.6580 15.93460014  2289
STARLINK-37410
1 68823U 26089X   26120.16667823 -.02249254  13888-2 -62999-2 0  9999
2 68823  97.2834 325.5483 0001404  84.8733 283.7936 15.93777960  2288
STARLINK-37443
1 68824U 26089Y   26120.16667823 -.02247869  13895-2 -62463-2 0  9994
2 68824  97.2834 325.5496 0001515  78.5240 292.7747 15.93928664  2345
STARLINK-37015
1 68825U 26089Z   26120.16667823 -.02229679  13703-2 -61456-2 0  9993
2 68825  97.2831 325.5499 0001344  82.5246 291.0439 15.94082468  2284
2026-090A
1 68826U 26090A   26114.73803336  .00037958  00000+0  20267-3 0  9995
2 68826  96.6459  34.2833 0011850 244.0774 115.9275 15.80198214   220
2026-090B
1 68827U 26090B   26114.67468931  .00037787  00000+0  20159-3 0  9997
2 68827  96.6473  34.2234 0011965 243.5513 116.4530 15.80215914   210
2026-090C
1 68828U 26090C   26114.73795262  .00038137  00000+0  20274-3 0  9993
2 68828  96.6472  34.2814 0011834 242.5779 117.4288 15.80294056   228
2026-090D
1 68829U 26090D   26114.73793650  .00031010  00000+0  16485-3 0  9995
2 68829  96.6466  34.2825 0012600 241.1997 118.8008 15.80312640   228
HULIANWANG JISHU SHIYAN*
1 68831U 26091A   26118.65906553  .00001656  00000+0  91997-4 0  9997
2 68831  54.9993 238.1031 0008482 291.2601  68.7512 15.19434621   676
HULIANWANG JISHU SHIYAN*
1 68832U 26091B   26118.65986281  .00001698  00000+0  94766-4 0  9997
2 68832  54.9997 238.1111 0008581 282.9875  77.0186 15.19121536   678
HULIANWANG JISHU SHIYAN*
1 68833U 26091C   26118.59258559  .00003349  00000+0  16969-3 0  9994
2 68833  54.9988 238.3859 0008877 297.0826  62.9288 15.19677359   665
HULIANWANG JISHU SHIYAN*
1 68834U 26091D   26118.72311870  .00001556  00000+0  85606-4 0  9999
2 68834  54.9992 237.8086 0009094 308.4257  51.5946 15.20161859   686
PRSC-E03
1 68835U 26092A   26118.07999911  .00002925  00000+0  20185-3 0  9998
2 68835  38.0027  25.0972 0004773 334.4350  25.6175 15.06422626   392
PROGRESS-MS 34
1 68837U 26093A   26119.68381909  .00007324  00000+0  14081-3 0  9997
2 68837  51.6318 180.1788 0007117   4.9077 355.1979 15.49024031   383
SL-4 R/B
1 68838U 26093B   26117.63842432  .08101162  12482-4  42104-3 0  9996
2 68838  51.6491 189.8262 0008279  80.4171 279.7792 16.42181963   288
